BEIDOU-2 M3 (C11)       
1 38250U 12018A   26176.78001372 -.00000106  00000+0  00000+0 0  9996
2 38250  55.7497 304.5848 0020315 273.3590  86.3983  1.86229866 96100
BEIDOU-2 M4 (C12)       
1 38251U 12018B   26177.24927972 -.00000103  00000+0  00000+0 0  9999
2 38251  55.6492 303.7834 0011702 273.7859  86.0713  1.86229631 96112
SES-5 (EGNOS/PRN 136)   
1 38652U 12036A   26177.73791816  .00000043  00000+0  00000+0 0  9996
2 38652   0.0452 318.0989 0002630 150.5218  76.8565  1.00261199 44552
BEIDOU-2 M6 (C14)       
1 38775U 12050B   26176.95897983 -.00000089  00000+0  00000+0 0  9994
2 38775  56.5518  62.6042 0013535 358.1579   1.8786  1.86231118 93471
GSAT-10 (GAGAN/PRN 128) 
1 38779U 12051B   26177.68205359 -.00000154  00000+0  00000+0 0  9993
2 38779   0.0594 259.0415 0008169 191.7626 152.5629  1.00272048 50195
GPS BIIF-3  (PRN 24)    
1 38833U 12053A   26177.29038387  .00000028  00000+0  00000+0 0  9997
2 38833  53.5875 143.2264 0180813  65.8944 295.9517  2.00567692 99620
GSAT0103 (GALILEO-FM3)  
1 38857U 12055A   26177.27442491 -.00000038  00000+0  00000+0 0  9990
2 38857  55.8119 101.2962 0004643 306.5520  53.3783  1.70473541 85162
BEIDOU-2 G6 (C02)       
1 38953U 12059A   26177.75351124 -.00000168  00000+0  00000+0 0  9990
2 38953   4.4461  73.4247 0009722 328.6677 228.0807  1.00271369 50006
LUCH 5B (SDCM/PRN 125)  
1 38977U 12061A   26177.44850266 -.00000136  00000+0  00000+0 0  9991
2 38977  10.5037  49.7912 0002511 136.3934 233.5935  1.00272700 49701
COSMOS 2485 (747)       
1 39155U 13019A   26177.29519291 -.00000060  00000+0  00000+0 0  9993
2 39155  65.4249  73.2985 0022912 233.1072 126.7203  2.13103278102475
GPS BIIF-4  (PRN 27)    
1 39166U 13023A   26176.65900812 -.00000046  00000+0  00000+0 0  9996
2 39166  54.4973 268.6283 0141475  51.0602 310.2306  2.00563550 96051
IRNSS-1A                
1 39199U 13034A   26176.74993227  .00000048  00000+0  00000+0 0  9997
2 39199  35.7396  63.7472 0018406 178.4200 356.6391  1.00277689 47459
GPS BIIF-5  (PRN 30)    
1 39533U 14008A   26177.15932725  .00000041  00000+0  00000+0 0  9996
2 39533  53.6559 148.9537 0084215 231.3935 127.8246  2.00560425 89866
ASTRA 5B (EGNOS/PRN 123)
1 39617U 14011B   26177.67028909  .00000148  00000+0  00000+0 0  9998
2 39617   0.0532 325.0178 0002215 114.2470 100.2986  1.00272462 44764
COSMOS 2492 (754)       
1 39620U 14012A   26174.90776451 -.00000082  00000+0  00000+0 0  9996
2 39620  65.2933 313.7069 0010214 323.0851  36.8355  2.13103141 95380
IRNSS-1B                
1 39635U 14017A   26176.74975894  .00000139  00000+0  00000+0 0  9995
2 39635  28.9107 240.2561 0023692 197.5967 161.0226  1.00269592 44876
LUCH 5V (SDCM/PRN 141)  
1 39727U 14023A   26177.68439360 -.00000262  00000+0  00000+0 0  9999
2 39727   5.1566  69.6542 0002465  49.0052 137.2857  1.00271976 44455
