[{"OBJECT_NAME":"BEIDOU-2 M3 (C11)","OBJECT_ID":"2012-018A","EPOCH":"2026-06-25T18:43:13.185408","MEAN_MOTION":1.86229866,"ECCENTRICITY":0.0020315,"INCLINATION":55.7497,"RA_OF_ASC_NODE":304.5848,"ARG_OF_PERICENTER":273.359,"MEAN_ANOMALY":86.3983,"EPHEMERIS_TYPE":0,"CLASSIFICATION_TYPE":"U","NORAD_CAT_ID":38250,"ELEMENT_SET_NO":999,"REV_AT_EPOCH":9610,"BSTAR":0,"MEAN_MOTION_DOT":-1.06e-6,"MEAN_MOTION_DDOT":0},{"OBJECT_NAME":"BEIDOU-2 M4 (C12)","OBJECT_ID":"2012-018B","EPOCH":"2026-06-26T05:58:57.767808","MEAN_MOTION":1.86229631,"ECCENTRICITY":0.0011702,"INCLINATION":55.6492,"RA_OF_ASC_NODE":303.7834,"ARG_OF_PERICENTER":273.7859,"MEAN_ANOMALY":86.0713,"EPHEMERIS_TYPE":0,"CLASSIFICATION_TYPE":"U","NORAD_CAT_ID":38251,"ELEMENT_SET_NO":999,"REV_AT_EPOCH":9611,"BSTAR":0,"MEAN_MOTION_DOT":-1.03e-6,"MEAN_MOTION_DDOT":0},{"OBJECT_NAME":"SES-5 (EGNOS/PRN 136)","OBJECT_ID":"2012-036A","EPOCH":"2026-06-26T17:42:36.129024","MEAN_MOTION":1.00261199,"ECCENTRICITY":0.000263,"INCLINATION":0.0452,"RA_OF_ASC_NODE":318.0989,"ARG_OF_PERICENTER":150.5218,"MEAN_ANOMALY":76.8565,"EPHEMERIS_TYPE":0,"CLASSIFICATION_TYPE":"U","NORAD_CAT_ID":38652,"ELEMENT_SET_NO":999,"REV_AT_EPOCH":4455,"BSTAR":0,"MEAN_MOTION_DOT":4.3e-7,"MEAN_MOTION_DDOT":0},{"OBJECT_NAME":"BEIDOU-2 M6 (C14)","OBJECT_ID":"2012-050B","EPOCH":"2026-06-25T23:00:55.857312","MEAN_MOTION":1.86231118,"ECCENTRICITY":0.00135352,"INCLINATION":56.5518,"RA_OF_ASC_NODE":62.6042,"ARG_OF_PERICENTER":358.1579,"MEAN_ANOMALY":1.8786,"EPHEMERIS_TYPE":0,"CLASSIFICATION_TYPE":"U","NORAD_CAT_ID":38775,"ELEMENT_SET_NO":999,"REV_AT_EPOCH":9347,"BSTAR":0,"MEAN_MOTION_DOT":-8.9e-7,"MEAN_MOTION_DDOT":0},{"OBJECT_NAME":"GSAT-10 (GAGAN/PRN 128)","OBJECT_ID":"2012-051B","EPOCH":"2026-06-26T16:22:09.430176","MEAN_MOTION":1.00272048,"ECCENTRICITY":0.0008169,"INCLINATION":0.0594,"RA_OF_ASC_NODE":259.0415,"ARG_OF_PERICENTER":191.7626,"MEAN_ANOMALY":152.5629,"EPHEMERIS_TYPE":0,"CLASSIFICATION_TYPE":"U","NORAD_CAT_ID":38779,"ELEMENT_SET_NO":999,"REV_AT_EPOCH":5019,"BSTAR":0,"MEAN_MOTION_DOT":-1.54e-6,"MEAN_MOTION_DDOT":0},{"OBJECT_NAME":"GPS BIIF-3  (PRN 24)","OBJECT_ID":"2012-053A","EPOCH":"2026-06-26T06:58:09.166368","MEAN_MOTION":2.00567692,"ECCENTRICITY":0.0180813,"INCLINATION":53.5875,"RA_OF_ASC_NODE":143.2264,"ARG_OF_PERICENTER":65.8944,"MEAN_ANOMALY":295.9517,"EPHEMERIS_TYPE":0,"CLASSIFICATION_TYPE":"U","NORAD_CAT_ID":38833,"ELEMENT_SET_NO":999,"REV_AT_EPOCH":9962,"BSTAR":0,"MEAN_MOTION_DOT":2.8e-7,"MEAN_MOTION_DDOT":0},{"OBJECT_NAME":"GSAT0103 (GALILEO-FM3)","OBJECT_ID":"2012-055A","EPOCH":"2026-06-26T06:35:10.312224","MEAN_MOTION":1.70473541,"ECCENTRICITY":0.0004643,"INCLINATION":55.8119,"RA_OF_ASC_NODE":101.2962,"ARG_OF_PERICENTER":306.552,"MEAN_ANOMALY":53.3783,"EPHEMERIS_TYPE":0,"CLASSIFICATION_TYPE":"U","NORAD_CAT_ID":38857,"ELEMENT_SET_NO":999,"REV_AT_EPOCH":8516,"BSTAR":0,"MEAN_MOTION_DOT":-3.8e-7,"MEAN_MOTION_DDOT":0},{"OBJECT_NAME":"BEIDOU-2 G6 (C02)","OBJECT_ID":"2012-059A","EPOCH":"2026-06-26T18:05:03.371136","MEAN_MOTION":1.00271369,"ECCENTRICITY":0.0009722,"INCLINATION":4.4461,"RA_OF_ASC_NODE":73.4247,"ARG_OF_PERICENTER":328.6677,"MEAN_ANOMALY":228.0807,"EPHEMERIS_TYPE":0,"CLASSIFICATION_TYPE":"U","NORAD_CAT_ID":38953,"ELEMENT_SET_NO":999,"REV_AT_EPOCH":5000,"BSTAR":0,"MEAN_MOTION_DOT":-1.68e-6,"MEAN_MOTION_DDOT":0},{"OBJECT_NAME":"LUCH 5B (SDCM/PRN 125)","OBJECT_ID":"2012-061A","EPOCH":"2026-06-26T10:45:50.629824","MEAN_MOTION":1.002727,"ECCENTRICITY":0.0002511,"INCLINATION":10.5037,"RA_OF_ASC_NODE":49.7912,"ARG_OF_PERICENTER":136.3934,"MEAN_ANOMALY":233.5935,"EPHEMERIS_TYPE":0,"CLASSIFICATION_TYPE":"U","NORAD_CAT_ID":38977,"ELEMENT_SET_NO":999,"REV_AT_EPOCH":4970,"BSTAR":0,"MEAN_MOTION_DOT":-1.36e-6,"MEAN_MOTION_DDOT":0},{"OBJECT_NAME":"COSMOS 2485 (747)","OBJECT_ID":"2013-019A","EPOCH":"2026-06-26T07:05:04.667424","MEAN_MOTION":2.13103278,"ECCENTRICITY":0.0022912,"INCLINATION":65.4249,"RA_OF_ASC_NODE":73.2985,"ARG_OF_PERICENTER":233.1072,"MEAN_ANOMALY":126.7203,"EPHEMERIS_TYPE":0,"CLASSIFICATION_TYPE":"U","NORAD_CAT_ID":39155,"ELEMENT_SET_NO":999,"REV_AT_EPOCH":10247,"BSTAR":0,"MEAN_MOTION_DOT":-6.0e-7,"MEAN_MOTION_DDOT":0},{"OBJECT_NAME":"GPS BIIF-4  (PRN 27)","OBJECT_ID":"2013-023A","EPOCH":"2026-06-25T15:48:58.301568","MEAN_MOTION":2.0056355,"ECCENTRICITY":0.01414754,"INCLINATION":54.4973,"RA_OF_ASC_NODE":268.6283,"ARG_OF_PERICENTER":51.0602,"MEAN_ANOMALY":310.2306,"EPHEMERIS_TYPE":0,"CLASSIFICATION_TYPE":"U","NORAD_CAT_ID":39166,"ELEMENT_SET_NO":999,"REV_AT_EPOCH":9605,"BSTAR":0,"MEAN_MOTION_DOT":-4.6e-7,"MEAN_MOTION_DDOT":0},{"OBJECT_NAME":"IRNSS-1A","OBJECT_ID":"2013-034A","EPOCH":"2026-06-25T17:59:54.148128","MEAN_MOTION":1.00277689,"ECCENTRICITY":0.00184067,"INCLINATION":35.7396,"RA_OF_ASC_NODE":63.7472,"ARG_OF_PERICENTER":178.42,"MEAN_ANOMALY":356.6391,"EPHEMERIS_TYPE":0,"CLASSIFICATION_TYPE":"U","NORAD_CAT_ID":39199,"ELEMENT_SET_NO":999,"REV_AT_EPOCH":4745,"BSTAR":0,"MEAN_MOTION_DOT":4.8e-7,"MEAN_MOTION_DDOT":0},{"OBJECT_NAME":"GPS BIIF-5  (PRN 30)","OBJECT_ID":"2014-008A","EPOCH":"2026-06-26T03:49:25.874400","MEAN_MOTION":2.00560425,"ECCENTRICITY":0.0084215,"INCLINATION":53.6559,"RA_OF_ASC_NODE":148.9537,"ARG_OF_PERICENTER":231.3935,"MEAN_ANOMALY":127.8246,"EPHEMERIS_TYPE":0,"CLASSIFICATION_TYPE":"U","NORAD_CAT_ID":39533,"ELEMENT_SET_NO":999,"REV_AT_EPOCH":8986,"BSTAR":0,"MEAN_MOTION_DOT":4.1e-7,"MEAN_MOTION_DDOT":0},{"OBJECT_NAME":"ASTRA 5B (EGNOS/PRN 123)","OBJECT_ID":"2014-011B","EPOCH":"2026-06-26T16:05:12.977376","MEAN_MOTION":1.00272462,"ECCENTRICITY":0.0002215,"INCLINATION":0.0532,"RA_OF_ASC_NODE":325.0178,"ARG_OF_PERICENTER":114.247,"MEAN_ANOMALY":100.2986,"EPHEMERIS_TYPE":0,"CLASSIFICATION_TYPE":"U","NORAD_CAT_ID":39617,"ELEMENT_SET_NO":999,"REV_AT_EPOCH":4476,"BSTAR":0,"MEAN_MOTION_DOT":1.48e-6,"MEAN_MOTION_DDOT":0},{"OBJECT_NAME":"COSMOS 2492 (754)","OBJECT_ID":"2014-012A","EPOCH":"2026-06-23T21:47:10.853664","MEAN_MOTION":2.13103141,"ECCENTRICITY":0.00102141,"INCLINATION":65.2933,"RA_OF_ASC_NODE":313.7069,"ARG_OF_PERICENTER":323.0851,"MEAN_ANOMALY":36.8355,"EPHEMERIS_TYPE":0,"CLASSIFICATION_TYPE":"U","NORAD_CAT_ID":39620,"ELEMENT_SET_NO":999,"REV_AT_EPOCH":9538,"BSTAR":0,"MEAN_MOTION_DOT":-8.2e-7,"MEAN_MOTION_DDOT":0},{"OBJECT_NAME":"IRNSS-1B","OBJECT_ID":"2014-017A","EPOCH":"2026-06-25T17:59:39.172416","MEAN_MOTION":1.00269592,"ECCENTRICITY":0.0023692,"INCLINATION":28.9107,"RA_OF_ASC_NODE":240.2561,"ARG_OF_PERICENTER":197.5967,"MEAN_ANOMALY":161.0226,"EPHEMERIS_TYPE":0,"CLASSIFICATION_TYPE":"U","NORAD_CAT_ID":39635,"ELEMENT_SET_NO":999,"REV_AT_EPOCH":4487,"BSTAR":0,"MEAN_MOTION_DOT":1.39e-6,"MEAN_MOTION_DDOT":0},{"OBJECT_NAME":"LUCH 5V (SDCM/PRN 141)","OBJECT_ID":"2014-023A","EPOCH":"2026-06-26T16:25:31.607040","MEAN_MOTION":1.00271976,"ECCENTRICITY":0.0002465,"INCLINATION":5.1566,"RA_OF_ASC_NODE":69.6542,"ARG_OF_PERICENTER":49.0052,"MEAN_ANOMALY":137.2857,"EPHEMERIS_TYPE":0,"CLASSIFICATION_TYPE":"U","NORAD_CAT_ID":39727,"ELEMENT_SET_NO":999,"REV_AT_EPOCH":4445,"BSTAR":0,"MEAN_MOTION_DOT":-2.62e-6,"MEAN_MOTION_DDOT":0}]
